NORAD_CAT_ID,OBJECT_NAME,OBJECT_TYPE,EPOCH,MEAN_MOTION,ECCENTRICITY,INCLINATION,RA_OF_ASC_NODE,ARG_OF_PERICENTER,MEAN_ANOMALY,BSTAR,MEAN_MOTION_DOT,MEAN_MOTION_DDOT,TLE_LINE0,TLE_LINE1,TLE_LINE2,SEMIMAJOR_AXIS,PERIOD,APOGEE,PERIGEE,DECAYED
54004.0,STARLINK-5129,PAYLOAD,2023-12-27 20:06:07,15.08857671,0.0001552,53.2153,217.9455,97.1229,262.9939,0.00036371,5.508e-05,0.0,0 STARLINK-5129,1 54004U 22125AS  23361.83759225  .00005508  00000-0  36371-3 0  9992,2 54004  53.2153 217.9455 0001552  97.1229 262.9939 15.08857671 68316,6917.826,95.436,540.765,538.618,0.0
54004.0,STARLINK-5129,PAYLOAD,2023-12-28 19:56:56,15.08837483,0.0001415,53.2162,213.4872,99.2045,260.9107,6.0678e-05,6.78e-06,0.0,0 STARLINK-5129,1 54004U 22125AS  23362.83120492  .00000678  00000-0  60678-4 0  9992,2 54004  53.2162 213.4872 0001415  99.2045 260.9107 15.08837483 68467,6917.888,95.438,540.732,538.774,0.0
54004.0,STARLINK-5129,PAYLOAD,2023-12-29 21:23:06,15.08842383,0.0001573,53.2159,208.7269,94.9601,265.1571,-0.00011393,-2.101e-05,0.0,0 STARLINK-5129,1 54004U 22125AS  23363.89104899 -.00002101  00000-0 -11393-3 0  9996,2 54004  53.2159 208.7269 0001573  94.9601 265.1571 15.08842383 68574,6917.873,95.437,540.826,538.65,0.0
54004.0,STARLINK-5129,PAYLOAD,2023-12-30 13:16:58,15.08830908,0.0001359,53.2159,205.7542,82.2747,277.8399,0.00014829,2.072e-05,0.0,0 STARLINK-5129,1 54004U 22125AS  23364.55345179  .00002072  00000-0  14829-3 0  9990,2 54004  53.2159 205.7542 0001359  82.2747 277.8399 15.08830908 68677,6917.908,95.438,540.713,538.833,0.0
54004.0,STARLINK-5129,PAYLOAD,2023-12-30 21:13:53,15.08836372,0.0001379,53.2159,204.2692,83.1792,276.9357,0.00019748,2.856e-05,0.0,0 STARLINK-5129,1 54004U 22125AS  23364.88464943  .00002856  00000-0  19748-3 0  9992,2 54004  53.2159 204.2692 0001379  83.1792 276.9357 15.08836372 68720,6917.891,95.438,540.71,538.803,0.0
54004.0,STARLINK-5129,PAYLOAD,2023-12-30 22:49:16,15.08837104,0.0001381,53.2159,203.9719,83.3099,276.805,0.00020699,3.008e-05,0.0,0 STARLINK-5129,1 54004U 22125AS  23364.95088955  .00003008  00000-0  20699-3 0  9992,2 54004  53.2159 203.9719 0001381  83.3099 276.8050 15.08837104 68780,6917.889,95.438,540.71,538.799,0.0
54004.0,STARLINK-5129,PAYLOAD,2023-12-31 19:29:17,15.08848258,0.0001432,53.2147,200.1062,78.9829,281.1324,0.00023572,3.466e-05,0.0,0 STARLINK-5129,1 54004U 22125AS  23365.81200666  .00003466  00000-0  23572-3 0  9994,2 54004  53.2147 200.1062 0001432  78.9829 281.1324 15.08848258 68869,6917.855,95.437,540.711,538.73,0.0
54004.0,STARLINK-5129,PAYLOAD,2024-01-01 19:20:04,15.08846148,0.0001446,53.2149,195.6457,77.3254,282.79,9.0237e-05,1.149e-05,0.0,0 STARLINK-5129,1 54004U 22125AS  24001.80560481  .00001149  00000-0  90237-4 0  9994,2 54004  53.2149 195.6457 0001446  77.3254 282.7900 15.08846148 69063,6917.862,95.437,540.727,538.726,0.0
54004.0,STARLINK-5129,PAYLOAD,2024-01-01 22:30:50,15.08847447,0.000142,53.2157,195.0509,79.1366,280.9786,9.3224e-05,1.196e-05,0.0,0 STARLINK-5129,1 54004U 22125AS  24001.93808365  .00001196  00000-0  93224-4 0  9995,2 54004  53.2157 195.0509 0001420  79.1366 280.9786 15.08847447 69032,6917.858,95.437,540.705,538.74,0.0
54004.0,STARLINK-5129,PAYLOAD,2024-01-02 22:21:37,15.08843842,0.0001394,53.2158,190.5896,83.9284,276.1867,9.6605e-06,-1.34e-06,0.0,0 STARLINK-5129,1 54004U 22125AS  24002.93168317 -.00000134  00000-0  96605-5 0  9991,2 54004  53.2158 190.5896 0001394  83.9284 276.1867 15.08843842 69182,6917.869,95.437,540.698,538.769,0.0
54004.0,STARLINK-5129,PAYLOAD,2024-01-03 12:40:05,15.08836556,0.0001478,53.2166,187.9121,95.1053,265.0108,2.1826e-05,5.9e-07,0.0,0 STARLINK-5129,1 54004U 22125AS  24003.52784684  .00000059  00000-0  21826-4 0  9995,2 54004  53.2166 187.9121 0001478  95.1053 265.0108 15.08836556 69329,6917.891,95.438,540.778,538.733,0.0
54004.0,STARLINK-5129,PAYLOAD,2024-01-03 19:01:38,15.08837056,0.0001456,53.2164,186.7227,96.7704,263.3454,1.6959e-05,-1.8e-07,0.0,0 STARLINK-5129,1 54004U 22125AS  24003.79280660 -.00000018  00000-0  16959-4 0  9996,2 54004  53.2164 186.7227 0001456  96.7704 263.3454 15.08837056 69317,6917.889,95.438,540.762,538.747,0.0
54004.0,STARLINK-5129,PAYLOAD,2024-01-04 18:52:25,15.08838941,0.0001418,53.2162,182.2621,95.2596,264.8557,6.387e-05,7.29e-06,0.0,0 STARLINK-5129,1 54004U 22125AS  24004.78640530  .00000729  00000-0  63870-4 0  9994,2 54004  53.2162 182.2621 0001418  95.2596 264.8557 15.08838941 69511,6917.884,95.438,540.73,538.768,0.0
54004.0,STARLINK-5129,PAYLOAD,2024-01-05 18:43:13,15.08833187,0.0001383,53.2165,177.8019,94.0965,266.0185,2.6219e-05,1.29e-06,0.0,0 STARLINK-5129,1 54004U 22125AS  24005.78001367  .00000129  00000-0  26219-4 0  9994,2 54004  53.2165 177.8019 0001383  94.0965 266.0185 15.08833187 69667,6917.901,95.438,540.723,538.809,0.0
54004.0,STARLINK-5129,PAYLOAD,2024-01-05 20:18:36,15.08833638,0.0001385,53.2165,177.5043,94.0233,266.0918,2.7733e-05,1.53e-06,0.0,0 STARLINK-5129,1 54004U 22125AS  24005.84625352  .00000153  00000-0  27733-4 0  9996,2 54004  53.2165 177.5043 0001385  94.0233 266.0918 15.08833638 69622,6917.9,95.438,540.723,538.807,0.0
54004.0,STARLINK-5129,PAYLOAD,2024-01-06 10:37:03,15.08843045,0.000131,53.2161,174.8276,88.9137,271.2005,8.6351e-05,1.087e-05,0.0,0 STARLINK-5129,1 54004U 22125AS  24006.44240662  .00001087  00000-0  86351-4 0  9998,2 54004  53.2161 174.8276 0001310  88.9137 271.2005 15.08843045 69762,6917.871,95.437,540.642,538.83,0.0
54004.0,STARLINK-5129,PAYLOAD,2024-01-06 18:33:59,15.08850029,0.0001364,53.2167,173.3425,84.707,275.4078,0.00014102,1.958e-05,0.0,0 STARLINK-5129,1 54004U 22125AS  24006.77360016  .00001958  00000-0  14102-3 0  9991,2 54004  53.2167 173.3425 0001364  84.7070 275.4078 15.08850029 69819,6917.85,95.437,540.658,538.771,0.0
54004.0,STARLINK-5129,PAYLOAD,2024-01-06 20:09:22,15.08850368,0.0001362,53.2165,173.0449,83.8504,276.2643,0.00014266,1.984e-05,0.0,0 STARLINK-5129,1 54004U 22125AS  24006.83983941  .00001984  00000-0  14266-3 0  9996,2 54004  53.2165 173.0449 0001362  83.8504 276.2643 15.08850368 69778,6917.849,95.437,540.656,538.771,0.0
54004.0,STARLINK-5129,PAYLOAD,2024-01-07 16:49:24,15.08834167,0.0001586,53.2175,169.1819,62.5546,297.5607,3.7648e-05,3.11e-06,0.0,0 STARLINK-5129,1 54004U 22125AS  24007.70097523  .00000311  00000-0  37648-4 0  9998,2 54004  53.2175 169.1819 0001586  62.5546 297.5607 15.08834167 69959,6917.898,95.438,540.86,538.666,0.0
54004.0,STARLINK-5129,PAYLOAD,2024-01-08 10:18:38,15.08845332,0.0001578,53.217,165.9063,102.3089,257.808,-4.5992e-05,-1.02e-05,0.0,0 STARLINK-5129,1 54004U 22125AS  24008.42960910 -.00001020  00000-0 -45992-4 0  9998,2 54004  53.2170 165.9063 0001578 102.3089 257.8080 15.08845332 70069,6917.864,95.437,540.821,538.637,0.0
54004.0,STARLINK-5129,PAYLOAD,2024-01-08 15:04:47,15.08847686,0.0001337,53.2171,165.0177,74.3846,285.7293,1.0477e-05,-1.21e-06,0.0,0 STARLINK-5129,1 54004U 22125AS  24008.62832564 -.00000121  00000-0  10477-4 0  9993,2 54004  53.2171 165.0177 0001337  74.3846 285.7293 15.08847686 70047,6917.857,95.437,540.647,538.797,0.0
54004.0,STARLINK-5129,PAYLOAD,2024-01-09 14:55:34,15.08839535,0.0001262,53.2175,160.5581,98.2693,261.8443,5.5362e-05,5.93e-06,0.0,0 STARLINK-5129,1 54004U 22125AS  24009.62192793  .00000593  00000-0  55362-4 0  9991,2 54004  53.2175 160.5581 0001262  98.2693 261.8443 15.08839535 70194,6917.882,95.438,540.62,538.874,0.0
54004.0,STARLINK-5129,PAYLOAD,2024-01-09 16:30:57,15.08840226,0.0001274,53.2172,160.2604,96.8873,263.2264,6.5066e-05,7.48e-06,0.0,0 STARLINK-5129,1 54004U 22125AS  24009.68816723  .00000748  00000-0  65066-4 0  9997,2 54004  53.2172 160.2604 0001274  96.8873 263.2264 15.08840226 70254,6917.88,95.438,540.626,538.863,0.0
54004.0,STARLINK-5129,PAYLOAD,2024-01-10 14:46:21,15.08837904,0.0001392,53.2174,156.0976,98.853,261.262,1.8821e-05,1.2e-07,0.0,0 STARLINK-5129,1 54004U 22125AS  24010.61553158  .00000012  00000-0  18821-4 0  9993,2 54004  53.2174 156.0976 0001392  98.8530 261.2620 15.08837904 70392,6917.887,95.438,540.715,538.789,0.0
54004.0,STARLINK-5129,PAYLOAD,2024-01-11 14:37:08,15.08843067,0.0001309,53.2163,151.6339,89.5455,270.5687,7.8708e-05,9.65e-06,0.0,0 STARLINK-5129,1 54004U 22125AS  24011.60912769  .00000965  00000-0  78708-4 0  9997,2 54004  53.2163 151.6339 0001309  89.5455 270.5687 15.08843067 70499,6917.871,95.437,540.642,538.83,0.0
54004.0,STARLINK-5129,PAYLOAD,2024-01-12 11:17:10,15.08829852,0.0001412,53.2162,147.7687,97.7256,262.3896,6.0747e-05,6.79e-06,0.0,0 STARLINK-5129,1 54004U 22125AS  24012.47025878  .00000679  00000-0  60747-4 0  9995,2 54004  53.2162 147.7687 0001412  97.7256 262.3896 15.08829852 70672,6917.911,95.438,540.753,538.8,0.0
54004.0,STARLINK-5129,PAYLOAD,2024-01-12 14:27:56,15.08836735,0.0001216,53.2161,147.1745,80.1075,280.0054,2.5133e-06,-2.48e-06,0.0,0 STARLINK-5129,1 54004U 22125AS  24012.60273738 -.00000248  00000-0  25133-5 0  9994,2 54004  53.2161 147.1745 0001216  80.1075 280.0054 15.08836735 70645,6917.89,95.438,540.597,538.914,0.0
54004.0,STARLINK-5129,PAYLOAD,2024-01-12 16:03:19,15.08838193,0.0001285,53.2166,146.8756,96.3407,263.7731,5.2886e-05,5.54e-06,0.0,0 STARLINK-5129,1 54004U 22125AS  24012.66897441  .00000554  00000-0  52886-4 0  9996,2 54004  53.2166 146.8756 0001285  96.3407 263.7731 15.08838193 70709,6917.886,95.438,540.64,538.862,0.0
54004.0,STARLINK-5129,PAYLOAD,2024-01-13 14:18:43,15.08839926,0.0001221,53.2163,142.7133,91.8915,268.2217,1.5184e-05,-4.6e-07,0.0,0 STARLINK-5129,1 54004U 22125AS  24013.59633785 -.00000046  00000-0  15184-4 0  9995,2 54004  53.2163 142.7133 0001221  91.8915 268.2217 15.08839926 70797,6917.881,95.438,540.59,538.901,0.0
54004.0,STARLINK-5129,PAYLOAD,2024-01-13 17:29:29,15.08847907,0.0001316,53.2163,142.1182,89.9766,270.1377,2.0302e-05,3.5e-07,0.0,0 STARLINK-5129,1 54004U 22125AS  24013.72881266  .00000035  00000-0  20302-4 0  9994,2 54004  53.2163 142.1182 0001316  89.9766 270.1377 15.08847907 70867,6917.856,95.437,540.632,538.811,0.0
